[
    {
        "Altitude(m)": 611965.2062181015,
        "Argument of Periapsis(deg)": 0.0,
        "Eccentricity": 0.0,
        "Inclination(deg)": 60.0,
        "Latitude(deg)": 59.140224802828435,
        "Longitude(deg)": 13.969629313706264,
        "Mean Anomaly(deg)": 81.8182,
        "RAAN(deg)": 40.0,
        "Satellite Name": "Test1 181",
        "Satellite Number": 181,
        "Semi-Major Axis(m)": 6980739.136638005,
        "Time(s)": 0
    },
    {
        "Altitude(m)": 611995.8323985754,
        "Argument of Periapsis(deg)": 0.00010418945913296404,
        "Eccentricity": 0.0,
        "Inclination(deg)": 60.0,
        "Latitude(deg)": 59.28332701049959,
        "Longitude(deg)": 15.102992554028507,
        "Mean Anomaly(deg)": 82.43830614546184,
        "RAAN(deg)": 39.99957995086026,
        "Satellite Name": "Test1 181",
        "Satellite Number": 181,
        "Semi-Major Axis(m)": 6980739.136638005,
        "Time(s)": 10
    }
]